0 COSMOS 2251 DEB
1 34994U 93036AFS 13282.25756053  .00073443  00000-0  14485-2 0  5057
2 34994 073.9089 109.7757 0112453 345.8607 136.5828 15.40178557247494
0 COSMOS 2251 DEB
1 34994U 93036AFS 13283.16520954  .00058161  00000-0  11459-2 0  5066
2 34994 073.9089 107.7971 0112193 343.6748 129.3378 15.40287497247633
0 COSMOS 2251 DEB
1 34994U 93036AFS 13283.87047806  .00053021  00000-0  10435-2 0  5078
2 34994 073.9088 106.2600 0112096 341.9669 080.1680 15.40346697247740
0 COSMOS 2251 DEB
1 34994U 93036AFS 13285.48836769  .00047321  00000-0  92775-3 0  5086
2 34994 073.9084 102.7334 0111906 338.0529 052.2169 15.40494921247995
0 COSMOS 2251 DEB
1 34994U 93036AFS 13287.83220172  .00064953  00000-0  12620-2 0  5093
2 34994 073.9079 097.6224 0111665 332.3999 091.4810 15.40707520248350
0 COSMOS 2251 DEB
1 34994U 93036AFS 13288.47553097  .00069365  00000-0  13431-2 0  5104
2 34994 073.9075 096.2189 0111557 330.8286 059.8555 15.40799789248456
0 COSMOS 2251 DEB
1 34994U 93036AFS 13289.44927785  .00062744  00000-0  12119-2 0  5118
2 34994 073.9081 094.0955 0111474 328.4965 061.2729 15.40898957248609
0 COSMOS 2251 DEB
1 34994U 93036AFS 13289.84563895  .00060221  00000-0  11622-2 0  5127
2 34994 073.9082 093.2308 0111459 327.5588 099.9996 15.40932097248661
0 COSMOS 2251 DEB
1 34994U 93036AFS 13292.43571394  .00054933  00000-0  10516-2 0  5134
2 34994 073.9090 087.5790 0111165 321.3544 069.3370 15.41205927249067
0 COSMOS 2251 DEB
1 34994U 93036AFS 13294.77853245  .00073285  00000-0  13881-2 0  5141
2 34994 073.9093 082.4647 0111069 315.7679 109.0859 15.41446156249429
0 COSMOS 2251 DEB
1 34994U 93036AFS 13295.75163372  .00070248  00000-0  13264-2 0  5157
2 34994 073.9098 080.3410 0110976 313.4868 109.1707 15.41552400249579
